{"type": "FeatureCollection", "features": [ {"type": "Feature", "properties": {"norad_id": 29868, "name": "FENGYUN 1C DEB", "group": "fengyun-1c-debris", "lat": -68.10616536575382, "lon": -175.2041921654345, "alt_km": 744.6844906950182, "timestamp": "2025-12-05T07:38:19.117371+00:00", "meta": {"OBJECT_NAME": "FENGYUN 1C DEB", "OBJECT_ID": "1999-025FN", "EPOCH": "2025-12-04T16:27:38.837952", "MEAN_MOTION": 14.7826895, "ECCENTRICITY": 0.0197795, "INCLINATION": 97.9513, "RA_OF_ASC_NODE": 24.5233, "ARG_OF_PERICENTER": 30.0422, "MEAN_ANOMALY": 97.4485, "EPHEMERIS_TYPE": 0, "CLASSIFICATION_TYPE": "U", "NORAD_CAT_ID": 29868, "ELEMENT_SET_NO": 999, "REV_AT_EPOCH": 176, "BSTAR": 0.0014016, "MEAN_MOTION_DOT": 0.00014105, "MEAN_MOTION_DDOT": 0}, "tle": {"line1": "1 29868U 99025FN  25338.68586618  .00014105  00000+0  14016-2 0  9991", "line2": "2 29868  97.9513  24.5233 0197795  30.0422  97.4485 14.78268950  1768"}}, "geometry": {"type": "Point", "coordinates": [-175.2041921654345, -68.10616536575382]}}, {"type": "Feature", "properties": {"norad_id": 29869, "name": "FENGYUN 1C DEB", "group": "fengyun-1c-debris", "lat": -30.968174294985545, "lon": -85.23585712945123, "alt_km": 746.875524000724, "timestamp": "2025-12-05T07:38:19.117381+00:00", "meta": {"OBJECT_NAME": "FENGYUN 1C DEB", "OBJECT_ID": "1999-025FP", "EPOCH": "2025-12-04T17:02:06.179136", "MEAN_MOTION": 14.3685033, "ECCENTRICITY": 0.0088011, "INCLINATION": 98.8722, "RA_OF_ASC_NODE": 268.7586, "ARG_OF_PERICENTER": 34.5306, "MEAN_ANOMALY": 29.4076, "EPHEMERIS_TYPE": 0, "CLASSIFICATION_TYPE": "U", "NORAD_CAT_ID": 29869, "ELEMENT_SET_NO": 999, "REV_AT_EPOCH": 98705, "BSTAR": 0.00072779, "MEAN_MOTION_DOT": 2.201e-05, "MEAN_MOTION_DDOT": 0}, "tle": {"line1": "1 29869U 99025FP  25338.70979374  .00002201  00000+0  72779-3 0  9995", "line2": "2 29869  98.8722 268.7586 0088011  34.5306  29.4076 14.36850330987053"}}, "geometry": {"type": "Point", "coordinates": [-85.23585712945123, -30.968174294985545]}}, {"type": "Feature", "properties": {"norad_id": 29870, "name": "FENGYUN 1C DEB", "group": "fengyun-1c-debris", "lat": -29.77722179569043, "lon": 125.57080411429308, "alt_km": 715.6183950021659, "timestamp": "2025-12-05T07:38:19.117391+00:00", "meta": {"OBJECT_NAME": "FENGYUN 1C DEB", "OBJECT_ID": "1999-025FQ", "EPOCH": "2025-12-04T12:45:53.758944", "MEAN_MOTION": 14.28976698, "ECCENTRICITY": 0.0119405, "INCLINATION": 98.459, "RA_OF_ASC_NODE": 309.6923, "ARG_OF_PERICENTER": 216.6877, "MEAN_ANOMALY": 270.2472, "EPHEMERIS_TYPE": 0, "CLASSIFICATION_TYPE": "U", "NORAD_CAT_ID": 29870, "ELEMENT_SET_NO": 999, "REV_AT_EPOCH": 98476, "BSTAR": 0.00010915, "MEAN_MOTION_DOT": 2.54e-06, "MEAN_MOTION_DDOT": 0}, "tle": {"line1": "1 29870U 99025FQ  25338.53187221  .00000254  00000+0  10915-3 0  9990", "line2": "2 29870  98.4590 309.6923 0119405 216.6877 270.2472 14.28976698984760"}}, "geometry": {"type": "Point", "coordinates": [125.57080411429308, -29.77722179569043]}}, {"type": "Feature", "properties": {"norad_id": 29871, "name": "FENGYUN 1C DEB", "group": "fengyun-1c-debris", "lat": 22.59235557533402, "lon": 115.83156111053795, "alt_km": 712.8212338871654, "timestamp": "2025-12-05T07:38:19.117401+00:00", "meta": {"OBJECT_NAME": "FENGYUN 1C DEB", "OBJECT_ID": "1999-025FR", "EPOCH": "2025-12-04T09:49:18.819840", "MEAN_MOTION": 14.42562761, "ECCENTRICITY": 0.0058262, "INCLINATION": 98.9718, "RA_OF_ASC_NODE": 291.1066, "ARG_OF_PERICENTER": 131.8902, "MEAN_ANOMALY": 346.6765, "EPHEMERIS_TYPE": 0, "CLASSIFICATION_TYPE": "U", "NORAD_CAT_ID": 29871, "ELEMENT_SET_NO": 999, "REV_AT_EPOCH": 98581, "BSTAR": 0.0020083, "MEAN_MOTION_DOT": 6.759e-05, "MEAN_MOTION_DDOT": 0}, "tle": {"line1": "1 29871U 99025FR  25338.40924560  .00006759  00000+0  20083-2 0  9994", "line2": "2 29871  98.9718 291.1066 0058262 131.8902 346.6765 14.42562761985819"}}, "geometry": {"type": "Point", "coordinates": [115.83156111053795, 22.59235557533402]}}, {"type": "Feature", "properties": {"norad_id": 29872, "name": "FENGYUN 1C DEB", "group": "fengyun-1c-debris", "lat": 72.07941635258017, "lon": -31.516831653877414, "alt_km": 775.1288675032065, "timestamp": "2025-12-05T07:38:19.117411+00:00", "meta": {"OBJECT_NAME": "FENGYUN 1C DEB", "OBJECT_ID": "1999-025FS", "EPOCH": "2025-12-03T23:35:39.425280", "MEAN_MOTION": 14.38882324, "ECCENTRICITY": 0.02359263, "INCLINATION": 98.3459, "RA_OF_ASC_NODE": 354.1795, "ARG_OF_PERICENTER": 339.9915, "MEAN_ANOMALY": 19.2138, "EPHEMERIS_TYPE": 0, "CLASSIFICATION_TYPE": "U", "NORAD_CAT_ID": 29872, "ELEMENT_SET_NO": 999, "REV_AT_EPOCH": 98466, "BSTAR": 0.0011819807, "MEAN_MOTION_DOT": 4.99e-05, "MEAN_MOTION_DDOT": 0}, "tle": {"line1": "1 29872U 99025FS  25337.98309520  .00004990  00000+0  11820-2 0  9994", "line2": "2 29872  98.3459 354.1795 0235926 339.9915  19.2138 14.38882324984668"}}, "geometry": {"type": "Point", "coordinates": [-31.516831653877414, 72.07941635258017]}}, {"type": "Feature", "properties": {"norad_id": 29873, "name": "FENGYUN 1C DEB", "group": "fengyun-1c-debris", "lat": 23.20573984332229, "lon": 23.26982488086459, "alt_km": 868.5741319099143, "timestamp": "2025-12-05T07:38:19.117421+00:00", "meta": {"OBJECT_NAME": "FENGYUN 1C DEB", "OBJECT_ID": "1999-025FT", "EPOCH": "2025-12-04T14:00:53.406144", "MEAN_MOTION": 13.98141018, "ECCENTRICITY": 0.0092457, "INCLINATION": 99.4432, "RA_OF_ASC_NODE": 198.423, "ARG_OF_PERICENTER": 221.2898, "MEAN_ANOMALY": 201.9125, "EPHEMERIS_TYPE": 0, "CLASSIFICATION_TYPE": "U", "NORAD_CAT_ID": 29873, "ELEMENT_SET_NO": 999, "REV_AT_EPOCH": 96201, "BSTAR": 0.00024325, "MEAN_MOTION_DOT": 3.11e-06, "MEAN_MOTION_DDOT": 0}, "tle": {"line1": "1 29873U 99025FT  25338.58395146  .00000311  00000+0  24325-3 0  9999", "line2": "2 29873  99.4432 198.4230 0092457 221.2898 201.9125 13.98141018962012"}}, "geometry": {"type": "Point", "coordinates": [23.26982488086459, 23.20573984332229]}}, {"type": "Feature", "properties": {"norad_id": 29874, "name": "FENGYUN 1C DEB", "group": "fengyun-1c-debris", "lat": -77.37449010523952, "lon": -82.35527461919199, "alt_km": 806.282188583742, "timestamp": "2025-12-05T07:38:19.117431+00:00", "meta": {"OBJECT_NAME": "FENGYUN 1C DEB", "OBJECT_ID": "1999-025FU", "EPOCH": "2025-12-03T06:09:35.951040", "MEAN_MOTION": 14.28568336, "ECCENTRICITY": 0.0105639, "INCLINATION": 98.3796, "RA_OF_ASC_NODE": 234.5134, "ARG_OF_PERICENTER": 18.1317, "MEAN_ANOMALY": 105.9475, "EPHEMERIS_TYPE": 0, "CLASSIFICATION_TYPE": "U", "NORAD_CAT_ID": 29874, "ELEMENT_SET_NO": 999, "REV_AT_EPOCH": 96712, "BSTAR": 0.0039108, "MEAN_MOTION_DOT": 0.00010388, "MEAN_MOTION_DDOT": 0}, "tle": {"line1": "1 29874U 99025FU  25337.25666610  .00010388  00000+0  39108-2 0  9999", "line2": "2 29874  98.3796 234.5134 0105639  18.1317 105.9475 14.28568336967123"}}, "geometry": {"type": "Point", "coordinates": [-82.35527461919199, -77.37449010523952]}}, {"type": "Feature", "properties": {"norad_id": 29875, "name": "FENGYUN 1C DEB", "group": "fengyun-1c-debris", "lat": -48.518368489419665, "lon": -158.57180002690978, "alt_km": 864.2707557629437, "timestamp": "2025-12-05T07:38:19.117441+00:00", "meta": {"OBJECT_NAME": "FENGYUN 1C DEB", "OBJECT_ID": "1999-025FV", "EPOCH": "2025-12-04T10:25:24.328704", "MEAN_MOTION": 14.24876646, "ECCENTRICITY": 0.0083313, "INCLINATION": 98.4063, "RA_OF_ASC_NODE": 30.2095, "ARG_OF_PERICENTER": 87.3053, "MEAN_ANOMALY": 289.5103, "EPHEMERIS_TYPE": 0, "CLASSIFICATION_TYPE": "U", "NORAD_CAT_ID": 29875, "ELEMENT_SET_NO": 999, "REV_AT_EPOCH": 98204, "BSTAR": 6.9646e-05, "MEAN_MOTION_DOT": 1.28e-06, "MEAN_MOTION_DDOT": 0}, "tle": {"line1": "1 29875U 99025FV  25338.43430936  .00000128  00000+0  69646-4 0  9994", "line2": "2 29875  98.4063  30.2095 0083313  87.3053 289.5103 14.24876646982045"}}, "geometry": {"type": "Point", "coordinates": [-158.57180002690978, -48.518368489419665]}}, {"type": "Feature", "properties": {"norad_id": 29876, "name": "FENGYUN 1C DEB", "group": "fengyun-1c-debris", "lat": -64.35859849974067, "lon": -167.46334425630997, "alt_km": 871.3528713869846, "timestamp": "2025-12-05T07:38:19.117451+00:00", "meta": {"OBJECT_NAME": "FENGYUN 1C DEB", "OBJECT_ID": "1999-025FW", "EPOCH": "2025-12-04T02:00:22.961376", "MEAN_MOTION": 14.20289186, "ECCENTRICITY": 0.00619672, "INCLINATION": 98.3345, "RA_OF_ASC_NODE": 29.155, "ARG_OF_PERICENTER": 42.4088, "MEAN_ANOMALY": 14.1611, "EPHEMERIS_TYPE": 0, "CLASSIFICATION_TYPE": "U", "NORAD_CAT_ID": 29876, "ELEMENT_SET_NO": 999, "REV_AT_EPOCH": 97794, "BSTAR": 0.00025684633, "MEAN_MOTION_DOT": 5.2e-06, "MEAN_MOTION_DDOT": 0}, "tle": {"line1": "1 29876U 99025FW  25338.08359909  .00000520  00000+0  25685-3 0  9996", "line2": "2 29876  98.3345  29.1550 0061967  42.4088  14.1611 14.20289186977944"}}, "geometry": {"type": "Point", "coordinates": [-167.46334425630997, -64.35859849974067]}}, {"type": "Feature", "properties": {"norad_id": 29877, "name": "FENGYUN 1C DEB", "group": "fengyun-1c-debris", "lat": -12.727911095143963, "lon": -13.221104357560954, "alt_km": 823.0460994505456, "timestamp": "2025-12-05T07:38:19.117461+00:00", "meta": {"OBJECT_NAME": "FENGYUN 1C DEB", "OBJECT_ID": "1999-025FX", "EPOCH": "2025-12-04T12:11:15.124416", "MEAN_MOTION": 14.24763917, "ECCENTRICITY": 0.0045602, "INCLINATION": 98.5374, "RA_OF_ASC_NODE": 344.0465, "ARG_OF_PERICENTER": 242.7963, "MEAN_ANOMALY": 269.3216, "EPHEMERIS_TYPE": 0, "CLASSIFICATION_TYPE": "U", "NORAD_CAT_ID": 29877, "ELEMENT_SET_NO": 999, "REV_AT_EPOCH": 97856, "BSTAR": 0.00084528, "MEAN_MOTION_DOT": 1.948e-05, "MEAN_MOTION_DDOT": 0}, "tle": {"line1": "1 29877U 99025FX  25338.50781394  .00001948  00000+0  84528-3 0  9997", "line2": "2 29877  98.5374 344.0465 0045602 242.7963 269.3216 14.24763917978565"}}, "geometry": {"type": "Point", "coordinates": [-13.221104357560954, -12.727911095143963]}}]}